NUSAT-1 (FRESCO)        
1 41557U 16033B   22210.82656249  .00007656  00000+0  22345-3 0  9996
2 41557  97.3901 308.6236 0009688 219.0071 294.0580 15.35573053343883
BEESAT-4                
1 41619U 16040W   22210.38543155  .00007113  00000+0  23139-3 0  9995
2 41619  97.2136 259.9157 0007990 336.1313  23.9558 15.32146853327141
CAS-2T & KS-1Q          
1 41847U 16066G   22210.42239954  .00000557  00000+0  92060-4 0  9995
2 41847  98.5488 275.0422 0364686  84.3959 279.8694 14.38668749300386
NAYIF-1 (EO-88)         
1 42017U 17008BX  22209.75831363  .00009504  00000+0  27485-3 0  9997
2 42017  97.2669 275.2994 0006523  99.8016 260.3965 15.35809963303413
ZHUHAI-1 02 (CAS-4B)    
1 42759U 17034B   22210.85531921  .00002313  00000+0  14449-3 0  9996
2 42759  43.0170  98.9332 0008893 204.6151 245.5838 15.12162029282775
ZHUHAI-1 01 (CAS-4A)    
1 42761U 17034D   22210.89069934  .00002374  00000+0  14759-3 0  9994
2 42761  43.0175  97.4960 0009575 207.5603 253.8734 15.12248777282789
MAX VALIER SAT          
1 42778U 17036P   22210.38575497  .00004487  00000+0  16868-3 0  9994
2 42778  97.2021 250.0551 0011227 167.4287 192.7235 15.27591560283303
RADFXSAT (FOX-1B)       
1 43017U 17073E   22210.65225261  .00002769  00000+0  20935-3 0  9994
2 43017  97.6702 103.1141 0249101  49.8830 312.3924 14.81668174253367
FOX-1D (AO-92)          
1 43137U 18004AC  22210.41772980  .00005088  00000+0  17729-3 0  9995
2 43137  97.3675 285.2119 0007029 201.1042 158.9909 15.30083001252767
DIWATA-2B               
1 43678U 18084H   22210.76201813  .00000563  00000+0  60926-4 0  9994
2 43678  97.9759 344.5365 0010715 139.4324 220.7691 14.92235593204169
ES'HAIL 2               
1 43700U 18090A   22210.55118885  .00000146  00000+0  00000+0 0  9999
2 43700   0.0211  83.2509 0001404  88.4038 359.7755  1.00267807 13698
FOX-1CLIFF (AO-95)      
1 43770U 18099N   22210.44668765  .00001216  00000+0  11148-3 0  9998
2 43770  97.6184 275.7060 0015265 131.9843 228.2682 14.96609017199296
ITASAT 1                
1 43786U 18099AE  22210.50303846  .00000607  00000+0  57977-4 0  9992
2 43786  97.6213 276.7023 0015885 124.7741 235.4978 14.96733330199341
JY1SAT (JO-97)          
1 43803U 18099AX  22210.17226049  .00001058  00000+0  96033-4 0  9991
2 43803  97.6173 276.1473 0015661 125.1801 235.0891 14.97265661199318
UWE-4                   
1 43880U 18111E   22210.54249361  .00001404  00000+0  12263-3 0  9991
2 43880  97.6637 116.1179 0012260 172.2915 187.8499 14.98345965196003
NEXUS (FO-99)           
1 43937U 19003F   22210.06103135  .00007115  00000+0  23418-3 0  9999
2 43937  97.1274 241.8100 0020019  10.9705 349.1970 15.31599406196347
PSAT2 (NO-104)          
1 44354U 19036R   22210.46766038  .00033428 -56792-5  26803-3 0  9993
2 44354  28.5218 246.1026 0216208  86.0752 276.4535 15.43940248171175
JAISAT-1                
1 44419U 19038F   22210.17395002  .00004148  00000+0  20724-3 0  9991
2 44419  97.6378 180.6535 0018627 353.3083   6.7898 15.17900710169387
DUCHIFAT-3              
1 44854U 19089C   22210.36829943  .00001802  00000+0  14340-3 0  9998
2 44854  36.9662 211.8130 0007773 209.1647 284.9445 15.01313012144235
CAS-6 (TO-108)          
1 44881U 19093C   22210.85171787  .00000343  00000+0  50147-4 0  9998
2 44881  97.8925 289.4519 0016196  51.4264 308.8381 14.81772008141050
RS-44 & BREEZE-KM R/B   
1 44909U 19096E   22210.25274729  .00000001  00000+0 -37222-4 0  9997
2 44909  82.5202 202.5050 0216541 221.7851 136.6542 12.79714137120851
ORBITAL FACTORY 2 (OF-2)
1 45113U 19071C   22210.31028341  .00013884  00000+0  27513-3 0  9995
2 45113  51.6356 213.1305 0009761 336.0353  24.0179 15.47293777139854
HUSKYSAT-1 (HO-107)     
1 45119U 19071J   22210.73179656  .00011660  00000+0  24177-3 0  9996
2 45119  51.6358 211.4166 0009439 333.2438  26.8061 15.46150484139905
BY70-2                  
1 45857U 20042B   22210.88341123  .00004386  00000+0  58235-3 0  9990
2 45857  97.9547 287.3301 0009749 348.3842  11.7045 14.80278819111736
SALSAT                  
1 46495U 20068K   22210.26089440  .00001522  00000+0  11241-3 0  9995
2 46495  97.7301 151.5809 0017437 132.7689 227.5007 15.04657928100476
BY70-3                  
1 46839U 20079N   22210.79575845  .00014782  00000+0  33011-3 0  9997
2 46839  97.1972 282.3758 0006124 162.9554 292.3211 15.43608909 96771
RADFXSAT-2 (AO-109)     
1 47311U 21002C   22210.54530008  .00004085  00000+0  16808-3 0  9995
2 47311  60.6828 203.7282 0024220   9.2497 350.9032 15.25843344 84882
UVSQ-SAT                
1 47438U 21006AB  22210.59212374  .00003069  00000+0  16239-3 0  9996
2 47438  97.4346 268.7419 0013249 125.5268 234.7202 15.16116834 83665
DIY-1 (ARDUIQUBE)       
1 47963U 21022AH  22210.51221355  .00007411  00000+0  40345-3 0  9998
2 47963  97.5285 111.4074 0016274 355.5586   4.5499 15.14617517 73315
XW-3 (CAS-9)            
1 50466U 21131B   22210.81029290  .00000007  00000+0  16802-4 0  9994
2 50466  98.5798 288.0428 0004996  38.3419 321.8123 14.38512520 31002
TEVEL-3                 
1 50988U 22002E   22210.78793983  .00004306  00000+0  23466-3 0  9993
2 50988  97.4798 277.0714 0007805 277.0939 222.7673 15.14900498 29822
TEVEL-8                 
1 50989U 22002F   22210.79439990  .00004271  00000+0  23315-3 0  9994
2 50989  97.4814 277.0993 0007849 276.8237 222.4905 15.14847608 29825
TEVEL-5                 
1 50998U 22002Q   22210.79523240  .00004298  00000+0  23099-3 0  9994
2 50998  97.4788 277.1939 0009359 272.5631 226.7153 15.15384842 29835
TEVEL-6                 
1 50999U 22002R   22210.79476957  .00004328  00000+0  23258-3 0  9998
2 50999  97.4791 277.1915 0009357 272.3276 226.9645 15.15389195 29839
TEVEL-1                 
1 51013U 22002AF  22210.79076542  .00004284  00000+0  23365-3 0  9992
2 51013  97.4785 277.0534 0007651 276.3197 223.2209 15.14875164 29827
TEVEL-7                 
1 51062U 22002CG  22210.79593691  .00004227  00000+0  23083-3 0  9999
2 51062  97.4807 277.0886 0007777 276.0491 223.1026 15.14837858 29823
TEVEL-4                 
1 51063U 22002CH  22210.79661957  .00004243  00000+0  23178-3 0  9994
2 51063  97.4804 277.0857 0007801 275.7200 223.3686 15.14829423 29824
TEVEL-2                 
1 51069U 22002CP  22210.45555998  .00004470  00000+0  24352-3 0  9997
2 51069  97.4791 276.7318 0007805 278.6242 203.1249 15.14891146 29771
